STARLINK-36542          
1 67445U 26008A   26042.99264961  .00071393  00000+0  12187-2 0  9995
2 67445  43.0000 351.0973 0005352 254.6390 105.3879 15.50404896  5636
STARLINK-36539          
1 67446U 26008B   26043.16670139 -.02024506  00000+0 -52058-1 0  9992
2 67446  42.9999 350.0557 0000851 272.3762 351.3081 15.42068694  5695
STARLINK-36440          
1 67447U 26008C   26043.16670139 -.02063372  00000+0 -40321-1 0  9997
2 67447  42.9998 349.5753 0001026 287.7857 170.7984 15.50023963  5690
STARLINK-36423          
1 67448U 26008D   26043.00096517  .00071866  00000+0  12205-2 0  9997
2 67448  42.9995 351.1628 0001096 233.8361 126.2398 15.50558051  5637
STARLINK-36519          
1 67449U 26008E   26043.16670139 -.02011159  00000+0 -49474-1 0  9993
2 67449  43.0002 349.7489 0001247 266.3133 121.6458 15.43344607  5697
STARLINK-36525          
1 67450U 26008F   26042.21860383  .00143281  00000+0  24003-2 0  9992
2 67450  42.9996 355.6095 0001824 304.6820  55.3869 15.50618838  5516
STARLINK-36511          
1 67451U 26008G   26043.16670139 -.02039360  00000+0 -41577-1 0  9996
2 67451  43.0000 350.1729 0000925 275.1905 300.7746 15.48794922  5692
STARLINK-36524          
1 67452U 26008H   26043.16670139 -.02044353  00000+0 -49446-1 0  9998
2 67452  43.0001 350.0610 0001026 248.6563  11.9895 15.43901205  5695
STARLINK-36518          
1 67453U 26008J   26043.16670139 -.02016339  00000+0 -59740-1 0  9990
2 67453  43.0001 349.6749 0001307 268.2360 143.4284 15.37800014  5713
STARLINK-36517          
1 67454U 26008K   26042.23078333  .00094064  00000+0  15894-2 0  9996
2 67454  43.0002 355.7026 0000912 262.5944  97.4813 15.50589769  5517
STARLINK-36516          
1 67455U 26008L   26042.92934757  .00071236  00000+0  12070-2 0  9993
2 67455  42.9991 351.4798 0001095 268.5793  91.4941 15.50626126  5620
STARLINK-36493          
1 67456U 26008M   26043.18468618  .00084525  00000+0  14307-2 0  9991
2 67456  42.9997 349.9561 0001465 272.5515  87.5177 15.50586601  5669
