CCSDS_OMM_VERS = 2.0
CREATION_DATE  = 
ORIGINATOR     = 

OBJECT_NAME    = STARLINK-36542
OBJECT_ID      = 2026-008A
CENTER_NAME    = EARTH
REF_FRAME      = TEME
TIME_SYSTEM    = UTC
MEAN_ELEMENT_THEORY = SGP/SGP4

EPOCH          = 2026-02-11T23:49:24.926304
MEAN_MOTION    = 15.50404896
ECCENTRICITY   = .0005352
INCLINATION    = 43.0000
RA_OF_ASC_NODE = 351.0973
ARG_OF_PERICENTER = 254.6390
MEAN_ANOMALY   = 105.3879

EPHEMERIS_TYPE = 0
CLASSIFICATION_TYPE = U
NORAD_CAT_ID   = 67445
ELEMENT_SET_NO = 999
REV_AT_EPOCH   = 563
BSTAR          = .12187E-2
MEAN_MOTION_DOT = .71393E-3
MEAN_MOTION_DDOT = 0

CCSDS_OMM_VERS = 2.0
CREATION_DATE  = 
ORIGINATOR     = 

OBJECT_NAME    = STARLINK-36539
OBJECT_ID      = 2026-008B
CENTER_NAME    = EARTH
REF_FRAME      = TEME
TIME_SYSTEM    = UTC
MEAN_ELEMENT_THEORY = SGP/SGP4

EPOCH          = 2026-02-12T04:00:03.000096
MEAN_MOTION    = 15.42068694
ECCENTRICITY   = .0000851
INCLINATION    = 42.9999
RA_OF_ASC_NODE = 350.0557
ARG_OF_PERICENTER = 272.3762
MEAN_ANOMALY   = 351.3081

EPHEMERIS_TYPE = 0
CLASSIFICATION_TYPE = U
NORAD_CAT_ID   = 67446
ELEMENT_SET_NO = 999
REV_AT_EPOCH   = 569
BSTAR          = -.52058E-1
MEAN_MOTION_DOT = -.2024506E-1
MEAN_MOTION_DDOT = 0

CCSDS_OMM_VERS = 2.0
CREATION_DATE  = 
ORIGINATOR     = 

OBJECT_NAME    = STARLINK-36440
OBJECT_ID      = 2026-008C
CENTER_NAME    = EARTH
REF_FRAME      = TEME
TIME_SYSTEM    = UTC
MEAN_ELEMENT_THEORY = SGP/SGP4

EPOCH          = 2026-02-12T04:00:03.000096
MEAN_MOTION    = 15.50023963
ECCENTRICITY   = .0001026
INCLINATION    = 42.9998
RA_OF_ASC_NODE = 349.5753
ARG_OF_PERICENTER = 287.7857
MEAN_ANOMALY   = 170.7984

EPHEMERIS_TYPE = 0
CLASSIFICATION_TYPE = U
NORAD_CAT_ID   = 67447
ELEMENT_SET_NO = 999
REV_AT_EPOCH   = 569
BSTAR          = -.40321E-1
MEAN_MOTION_DOT = -.2063372E-1
MEAN_MOTION_DDOT = 0

CCSDS_OMM_VERS = 2.0
CREATION_DATE  = 
ORIGINATOR     = 

OBJECT_NAME    = STARLINK-36423
OBJECT_ID      = 2026-008D
CENTER_NAME    = EARTH
REF_FRAME      = TEME
TIME_SYSTEM    = UTC
MEAN_ELEMENT_THEORY = SGP/SGP4

EPOCH          = 2026-02-12T00:01:23.390688
MEAN_MOTION    = 15.50558051
ECCENTRICITY   = .0001096
INCLINATION    = 42.9995
RA_OF_ASC_NODE = 351.1628
ARG_OF_PERICENTER = 233.8361
MEAN_ANOMALY   = 126.2398

EPHEMERIS_TYPE = 0
CLASSIFICATION_TYPE = U
NORAD_CAT_ID   = 67448
ELEMENT_SET_NO = 999
REV_AT_EPOCH   = 563
BSTAR          = .12205E-2
MEAN_MOTION_DOT = .71866E-3
MEAN_MOTION_DDOT = 0

CCSDS_OMM_VERS = 2.0
CREATION_DATE  = 
ORIGINATOR     = 

OBJECT_NAME    = STARLINK-36519
OBJECT_ID      = 2026-008E
CENTER_NAME    = EARTH
REF_FRAME      = TEME
TIME_SYSTEM    = UTC
MEAN_ELEMENT_THEORY = SGP/SGP4

EPOCH          = 2026-02-12T04:00:03.000096
MEAN_MOTION    = 15.43344607
ECCENTRICITY   = .0001247
INCLINATION    = 43.0002
RA_OF_ASC_NODE = 349.7489
ARG_OF_PERICENTER = 266.3133
MEAN_ANOMALY   = 121.6458

EPHEMERIS_TYPE = 0
CLASSIFICATION_TYPE = U
NORAD_CAT_ID   = 67449
ELEMENT_SET_NO = 999
REV_AT_EPOCH   = 569
BSTAR          = -.49474E-1
MEAN_MOTION_DOT = -.2011159E-1
MEAN_MOTION_DDOT = 0

CCSDS_OMM_VERS = 2.0
CREATION_DATE  = 
ORIGINATOR     = 

OBJECT_NAME    = STARLINK-36525
OBJECT_ID      = 2026-008F
CENTER_NAME    = EARTH
REF_FRAME      = TEME
TIME_SYSTEM    = UTC
MEAN_ELEMENT_THEORY = SGP/SGP4

EPOCH          = 2026-02-11T05:14:47.370912
MEAN_MOTION    = 15.50618838
ECCENTRICITY   = .00018241
INCLINATION    = 42.9996
RA_OF_ASC_NODE = 355.6095
ARG_OF_PERICENTER = 304.6820
MEAN_ANOMALY   = 55.3869

EPHEMERIS_TYPE = 0
CLASSIFICATION_TYPE = U
NORAD_CAT_ID   = 67450
ELEMENT_SET_NO = 999
REV_AT_EPOCH   = 551
BSTAR          = .24002676E-2
MEAN_MOTION_DOT = .143281E-2
MEAN_MOTION_DDOT = 0

CCSDS_OMM_VERS = 2.0
CREATION_DATE  = 
ORIGINATOR     = 

OBJECT_NAME    = STARLINK-36511
OBJECT_ID      = 2026-008G
CENTER_NAME    = EARTH
REF_FRAME      = TEME
TIME_SYSTEM    = UTC
MEAN_ELEMENT_THEORY = SGP/SGP4

EPOCH          = 2026-02-12T04:00:03.000096
MEAN_MOTION    = 15.48794922
ECCENTRICITY   = .0000925
INCLINATION    = 43.0000
RA_OF_ASC_NODE = 350.1729
ARG_OF_PERICENTER = 275.1905
MEAN_ANOMALY   = 300.7746

EPHEMERIS_TYPE = 0
CLASSIFICATION_TYPE = U
NORAD_CAT_ID   = 67451
ELEMENT_SET_NO = 999
REV_AT_EPOCH   = 569
BSTAR          = -.41577E-1
MEAN_MOTION_DOT = -.203936E-1
MEAN_MOTION_DDOT = 0

CCSDS_OMM_VERS = 2.0
CREATION_DATE  = 
ORIGINATOR     = 

OBJECT_NAME    = STARLINK-36524
OBJECT_ID      = 2026-008H
CENTER_NAME    = EARTH
REF_FRAME      = TEME
TIME_SYSTEM    = UTC
MEAN_ELEMENT_THEORY = SGP/SGP4

EPOCH          = 2026-02-12T04:00:03.000096
MEAN_MOTION    = 15.43901205
ECCENTRICITY   = .0001026
INCLINATION    = 43.0001
RA_OF_ASC_NODE = 350.0610
ARG_OF_PERICENTER = 248.6563
MEAN_ANOMALY   = 11.9895

EPHEMERIS_TYPE = 0
CLASSIFICATION_TYPE = U
NORAD_CAT_ID   = 67452
ELEMENT_SET_NO = 999
REV_AT_EPOCH   = 569
BSTAR          = -.49446E-1
MEAN_MOTION_DOT = -.2044353E-1
MEAN_MOTION_DDOT = 0

CCSDS_OMM_VERS = 2.0
CREATION_DATE  = 
ORIGINATOR     = 

OBJECT_NAME    = STARLINK-36518
OBJECT_ID      = 2026-008J
CENTER_NAME    = EARTH
REF_FRAME      = TEME
TIME_SYSTEM    = UTC
MEAN_ELEMENT_THEORY = SGP/SGP4

EPOCH          = 2026-02-12T04:00:03.000096
MEAN_MOTION    = 15.37800014
ECCENTRICITY   = .0001307
INCLINATION    = 43.0001
RA_OF_ASC_NODE = 349.6749
ARG_OF_PERICENTER = 268.2360
MEAN_ANOMALY   = 143.4284

EPHEMERIS_TYPE = 0
CLASSIFICATION_TYPE = U
NORAD_CAT_ID   = 67453
ELEMENT_SET_NO = 999
REV_AT_EPOCH   = 571
BSTAR          = -.5974E-1
MEAN_MOTION_DOT = -.2016339E-1
MEAN_MOTION_DDOT = 0

CCSDS_OMM_VERS = 2.0
CREATION_DATE  = 
ORIGINATOR     = 

OBJECT_NAME    = STARLINK-36517
OBJECT_ID      = 2026-008K
CENTER_NAME    = EARTH
REF_FRAME      = TEME
TIME_SYSTEM    = UTC
MEAN_ELEMENT_THEORY = SGP/SGP4

EPOCH          = 2026-02-11T05:32:19.679712
MEAN_MOTION    = 15.50589769
ECCENTRICITY   = .00009127
INCLINATION    = 43.0002
RA_OF_ASC_NODE = 355.7026
ARG_OF_PERICENTER = 262.5944
MEAN_ANOMALY   = 97.4813

EPHEMERIS_TYPE = 0
CLASSIFICATION_TYPE = U
NORAD_CAT_ID   = 67454
ELEMENT_SET_NO = 999
REV_AT_EPOCH   = 551
BSTAR          = .1589403E-2
MEAN_MOTION_DOT = .94064E-3
MEAN_MOTION_DDOT = 0

CCSDS_OMM_VERS = 2.0
CREATION_DATE  = 
ORIGINATOR     = 

OBJECT_NAME    = STARLINK-36516
OBJECT_ID      = 2026-008L
CENTER_NAME    = EARTH
REF_FRAME      = TEME
TIME_SYSTEM    = UTC
MEAN_ELEMENT_THEORY = SGP/SGP4

EPOCH          = 2026-02-11T22:18:15.630048
MEAN_MOTION    = 15.50626126
ECCENTRICITY   = .0001095
INCLINATION    = 42.9991
RA_OF_ASC_NODE = 351.4798
ARG_OF_PERICENTER = 268.5793
MEAN_ANOMALY   = 91.4941

EPHEMERIS_TYPE = 0
CLASSIFICATION_TYPE = U
NORAD_CAT_ID   = 67455
ELEMENT_SET_NO = 999
REV_AT_EPOCH   = 562
BSTAR          = .1207E-2
MEAN_MOTION_DOT = .71236E-3
MEAN_MOTION_DDOT = 0

CCSDS_OMM_VERS = 2.0
CREATION_DATE  = 
ORIGINATOR     = 

OBJECT_NAME    = STARLINK-36493
OBJECT_ID      = 2026-008M
CENTER_NAME    = EARTH
REF_FRAME      = TEME
TIME_SYSTEM    = UTC
MEAN_ELEMENT_THEORY = SGP/SGP4

EPOCH          = 2026-02-12T04:25:56.885952
MEAN_MOTION    = 15.50586601
ECCENTRICITY   = .0001465
INCLINATION    = 42.9997
RA_OF_ASC_NODE = 349.9561
ARG_OF_PERICENTER = 272.5515
MEAN_ANOMALY   = 87.5177

EPHEMERIS_TYPE = 0
CLASSIFICATION_TYPE = U
NORAD_CAT_ID   = 67456
ELEMENT_SET_NO = 999
REV_AT_EPOCH   = 566
BSTAR          = .14307E-2
MEAN_MOTION_DOT = .84525E-3
MEAN_MOTION_DDOT = 0

